postcode,city,state,source,last_update
1000,kangar,perlis,wikipedia,
2000,kuala perlis,perlis,wikipedia,
2100,padang besar,perlis,wikipedia,
2200,kaki bukit,perlis,wikipedia,
2400,kangar,perlis,wikipedia,
2450,kangar,perlis,wikipedia,
2500,kangar,perlis,wikipedia,
2600,arau,perlis,wikipedia,
2700,simpang ampat,perlis,wikipedia,
2800,simpang ampat,perlis,wikipedia,
5000,alor setar,kedah,wikipedia,
5050,alor setar,kedah,wikipedia,
5100,alor setar,kedah,wikipedia,
5150,alor setar,kedah,wikipedia,
5200,alor setar,kedah,wikipedia,
5250,alor setar,kedah,wikipedia,
5300,alor setar,kedah,wikipedia,
5350,alor setar,kedah,wikipedia,
5400,alor setar,kedah,wikipedia,
5460,alor setar,kedah,wikipedia,
6000,jitra,kedah,wikipedia,
6010,changloon,kedah,wikipedia,
6050,bukit kayu hitam,kedah,wikipedia,
6100,kodiang,kedah,wikipedia,
6150,ayer hitam,kedah,wikipedia,
6200,kepala batas,kedah,wikipedia,
6250,alor setar,kedah,wikipedia,
6300,kuala nerang,kedah,wikipedia,
6350,pokok sena,kedah,wikipedia,
6400,pokok sena,kedah,wikipedia,
6500,langgar,kedah,wikipedia,
6550,alor setar,kedah,wikipedia,
6570,alor setar,kedah,wikipedia,
6600,kuala kedah,kedah,wikipedia,
6650,simpang empat,kedah,wikipedia,
6660,alor setar,kedah,wikipedia,
6700,pendang,kedah,wikipedia,
6710,pendang,kedah,wikipedia,
6720,pendang,kedah,wikipedia,
6750,pendang,kedah,wikipedia,
6800,kota sarang semut,kedah,wikipedia,
6900,yan,kedah,wikipedia,
6910,yan,kedah,wikipedia,
7000,langkawi,kedah,wikipedia,
8000,sungai petani,kedah,wikipedia,
8010,sungai petani,kedah,wikipedia,
8100,bedong,kedah,wikipedia,
8110,bedong,kedah,wikipedia,
8200,sik,kedah,wikipedia,
8210,sik,kedah,wikipedia,
8300,gurun,kedah,wikipedia,
8320,jeniang,kedah,wikipedia,
8330,gurun,kedah,wikipedia,
8340,sik,kedah,wikipedia,
8400,merbok,kedah,wikipedia,
8500,kota kuala muda,kedah,wikipedia,
8600,sungai petani,kedah,wikipedia,
8700,jeniang,kedah,wikipedia,
8800,gurun,kedah,wikipedia,
9000,kulim,kedah,wikipedia,
9010,kulim,kedah,wikipedia,
9020,kulim,kedah,wikipedia,
9100,baling,kedah,wikipedia,
9110,kuala pegang,kedah,wikipedia,
9200,kupang,kedah,wikipedia,
9300,kuala ketil,kedah,wikipedia,
9310,kuala ketil,kedah,wikipedia,
9400,padang serai,kedah,wikipedia,
9410,padang serai,kedah,wikipedia,
9600,lunas,kedah,wikipedia,
9700,karangan,kedah,wikipedia,
9800,serdang,kedah,wikipedia,
9810,serdang,kedah,wikipedia,
14290,bandar baharu,kedah,wikipedia,
14390,bandar baharu,kedah,wikipedia,
34950,bandar baharu,kedah,wikipedia,
10000,george town,penang,wikipedia,09-02-2024
10050,george town,penang,wikipedia,09-02-2024
10100,george town,penang,wikipedia,09-02-2024
10150,george town,penang,wikipedia,09-02-2024
10200,george town,penang,wikipedia,09-02-2024
10250,george town,penang,wikipedia,09-02-2024
10300,george town,penang,wikipedia,09-02-2024
10350,george town,penang,wikipedia,09-02-2024
10400,george town,penang,wikipedia,09-02-2024
10450,george town,penang,wikipedia,09-02-2024
10460,george town,penang,wikipedia,09-02-2024
10470,george town,penang,wikipedia,09-02-2024
11000,balik pulau,penang,wikipedia,
11010,balik pulau,penang,wikipedia,
11020,balik pulau,penang,wikipedia,
11050,pulau pinang,penang,wikipedia,
11060,pulau pinang,penang,wikipedia,
11100,batu feringghi,penang,wikipedia,
11200,tanjong bungah,penang,wikipedia,
11300,penang hill,penang,wikipedia,
11400,pulau pinang,penang,wikipedia,
11500,ayer itam,penang,wikipedia,
11600,jelutong,penang,wikipedia,
11700,gelugor,penang,wikipedia,
11900,bayan lepas,penang,wikipedia,
11910,bayan lepas,penang,wikipedia,
11920,bayan lepas,penang,wikipedia,
11950,bayan lepas,penang,wikipedia,
11960,batu maung,penang,wikipedia,
12000,butterworth,penang,wikipedia,
12100,butterworth,penang,wikipedia,
12200,butterworth,penang,wikipedia,
12300,butterworth,penang,wikipedia,
13000,butterworth,penang,wikipedia,
13020,butterworth,penang,wikipedia,
13050,butterworth,penang,wikipedia,
13100,penaga,penang,wikipedia,
13110,penaga,penang,wikipedia,
13200,kepala batas,penang,wikipedia,
13210,kepala batas,penang,wikipedia,
13220,kepala batas,penang,wikipedia,
13300,tasek gelugor,penang,wikipedia,
13310,tasek gelugor,penang,wikipedia,
13400,butterworth,penang,wikipedia,
13500,permatang pauh,penang,wikipedia,
13600,perai,penang,wikipedia,
13609,perai,penang,wikipedia,
13700,perai,penang,wikipedia,
13800,butterworth,penang,wikipedia,
14000,bukit mertajam,penang,wikipedia,
14020,bukit mertajam,penang,wikipedia,
14100,simpang ampat,penang,wikipedia,
14110,simpang ampat,penang,wikipedia,
14120,simpang ampat,penang,wikipedia,
14200,sungai jawi,penang,wikipedia,
14300,nibong tebal,penang,wikipedia,
14310,nibong tebal,penang,wikipedia,
14320,nibong tebal,penang,wikipedia,
14400,kubang semang,penang,wikipedia,
15000,kota bharu,kelantan,wikipedia,
15050,kota bharu,kelantan,wikipedia,
15100,kota bharu,kelantan,wikipedia,
15150,kota bharu,kelantan,wikipedia,
15200,kota bharu,kelantan,wikipedia,
15300,kota bharu,kelantan,wikipedia,
15350,kota bharu,kelantan,wikipedia,
15400,kota bharu,kelantan,wikipedia,
16010,kota bharu,kelantan,wikipedia,
16020,bachok,kelantan,wikipedia,
16030,bachok,kelantan,wikipedia,
16040,wakaf bharu,kelantan,wikipedia,
16050,bachok,kelantan,wikipedia,
16060,bachok,kelantan,wikipedia,
16070,bachok,kelantan,wikipedia,
16080,tumpat,kelantan,wikipedia,
16090,bachok,kelantan,wikipedia,
16100,kota bharu,kelantan,wikipedia,
16150,kota bharu,kelantan,wikipedia,
16200,tumpat,kelantan,wikipedia,
16210,tumpat,kelantan,wikipedia,
16250,wakaf bharu,kelantan,wikipedia,
16300,bachok,kelantan,wikipedia,
16310,bachok,kelantan,wikipedia,
16320,bachok,kelantan,wikipedia,
16400,melor,kelantan,wikipedia,
16450,ketereh,kelantan,wikipedia,
16500,kem desa pahlawan,kelantan,wikipedia,
16600,pulai chondong,kelantan,wikipedia,
16700,cherang ruku,kelantan,wikipedia,
16800,pasir puteh,kelantan,wikipedia,
16810,selising,kelantan,wikipedia,
17000,pasir mas,kelantan,wikipedia,
17010,pasir mas,kelantan,wikipedia,
17020,pasir mas,kelantan,wikipedia,
17030,pasir mas,kelantan,wikipedia,
17040,pasir mas,kelantan,wikipedia,
17050,pasir mas,kelantan,wikipedia,
17060,pasir mas,kelantan,wikipedia,
17070,pasir mas,kelantan,wikipedia,
17200,rantau panjang,kelantan,wikipedia,
17500,tanah merah,kelantan,wikipedia,
17510,tanah merah,kelantan,wikipedia,
17600,jeli,kelantan,wikipedia,
17610,kuala balah,kelantan,wikipedia,
17700,ayer lanas,kelantan,wikipedia,
18000,kuala krai,kelantan,wikipedia,
18050,kuala krai,kelantan,wikipedia,
18200,dabong,kelantan,wikipedia,
18300,gua musang,kelantan,wikipedia,
18400,temangan,kelantan,wikipedia,
18500,machang,kelantan,wikipedia,
20000,kuala terengganu,terengganu,wikipedia,
20050,kuala terengganu,terengganu,wikipedia,
20100,kuala terengganu,terengganu,wikipedia,
20200,kuala terengganu,terengganu,wikipedia,
20300,kuala terengganu,terengganu,wikipedia,
20400,kuala terengganu,terengganu,wikipedia,
21000,kuala terengganu,terengganu,wikipedia,
21010,kuala terengganu,terengganu,wikipedia,
21020,kuala terengganu,terengganu,wikipedia,
21030,kuala terengganu,terengganu,wikipedia,
21040,kuala terengganu,terengganu,wikipedia,
21060,kuala terengganu,terengganu,wikipedia,
21070,kuala terengganu,terengganu,wikipedia,
21080,kuala terengganu,terengganu,wikipedia,
21090,kuala terengganu,terengganu,wikipedia,
21100,kuala terengganu,terengganu,wikipedia,
21200,kuala terengganu,terengganu,wikipedia,
21210,kuala terengganu,terengganu,wikipedia,
21220,kuala terengganu,terengganu,wikipedia,
21300,kuala terengganu,terengganu,wikipedia,
21400,bukit payong,terengganu,wikipedia,
21450,chalok,terengganu,wikipedia,
21500,sungai tong,terengganu,wikipedia,
21600,marang,terengganu,wikipedia,
21610,marang,terengganu,wikipedia,
21700,kuala berang,terengganu,wikipedia,
21800,ajil,terengganu,wikipedia,
21810,ajil,terengganu,wikipedia,
21820,ajil,terengganu,wikipedia,
22000,jerteh,terengganu,wikipedia,
22010,jerteh,terengganu,wikipedia,
22020,jerteh,terengganu,wikipedia,
22100,permaisuri,terengganu,wikipedia,
22110,permaisuri,terengganu,wikipedia,
22120,permaisuri,terengganu,wikipedia,
22200,kampung raja,terengganu,wikipedia,
22300,kuala besut,terengganu,wikipedia,
23000,dungun,terengganu,wikipedia,
23050,dungun,terengganu,wikipedia,
23100,paka,terengganu,wikipedia,
23200,bukit besi,terengganu,wikipedia,
23300,ketengah jaya,terengganu,wikipedia,
23400,al muktafi billah shah,terengganu,wikipedia,
24000,cukai,terengganu,wikipedia,
24050,ayer puteh,terengganu,wikipedia,
24060,ceneh,terengganu,wikipedia,
24100,kijal,terengganu,wikipedia,
24200,kemasek,terengganu,wikipedia,
24300,kerteh,terengganu,wikipedia,
25000,kuantan,pahang,wikipedia,
25050,jalan tengku muhamad,pahang,wikipedia,
25100,kuantan,pahang,wikipedia,
25150,inderapura,pahang,wikipedia,
25200,bandar indera mahkota,pahang,wikipedia,
25250,alor akar,pahang,wikipedia,
25300,kuantan,pahang,wikipedia,
25350,kuantan,pahang,wikipedia,
26010,kuantan,pahang,wikipedia,
26040,kuantan,pahang,wikipedia,
26050,bukit goh,pahang,wikipedia,
26060,kuantan,pahang,wikipedia,
26070,kuantan,pahang,wikipedia,
26080,balok,pahang,wikipedia,
26090,bukit goh,pahang,wikipedia,
26100,balok,pahang,wikipedia,
26140,kuantan,pahang,wikipedia,
26150,balok,pahang,wikipedia,
26180,kuantan,pahang,wikipedia,
26190,balok,pahang,wikipedia,
26200,sungai lembing,pahang,wikipedia,
26250,jaya gading,pahang,wikipedia,
26300,gambang,pahang,wikipedia,
26400,bandar pusat jengka,pahang,wikipedia,
26410,bandar pusat jengka,pahang,wikipedia,
26420,bandar pusat jengka,pahang,wikipedia,
26430,bandar pusat jengka,pahang,wikipedia,
26440,bandar pusat jengka,pahang,wikipedia,
26450,bandar pusat jengka,pahang,wikipedia,
26460,bandar pusat jengka,pahang,wikipedia,
26500,maran,pahang,wikipedia,
26600,pekan,pahang,wikipedia,
26610,pekan,pahang,wikipedia,
26620,pekan,pahang,wikipedia,
26630,pekan,pahang,wikipedia,
26640,pekan,pahang,wikipedia,
26650,pekan,pahang,wikipedia,
26660,pekan,pahang,wikipedia,
26680,pekan,pahang,wikipedia,
26690,chini,pahang,wikipedia,
26700,muadzam shah,pahang,wikipedia,
26800,kuala rompin,pahang,wikipedia,
26810,kuala rompin,pahang,wikipedia,
26820,kuala rompin,pahang,wikipedia,
26900,bandar tun abdul razak,pahang,wikipedia,
27000,jerantut,pahang,wikipedia,
27010,jerantut,pahang,wikipedia,
27020,jerantut,pahang,wikipedia,
27030,jerantut,pahang,wikipedia,
27040,jerantut,pahang,wikipedia,
27050,jerantut,pahang,wikipedia,
27060,jerantut,pahang,wikipedia,
27070,jerantut,pahang,wikipedia,
27090,jerantut,pahang,wikipedia,
27100,padang tengku,pahang,wikipedia,
27150,jerantut,pahang,wikipedia,
27200,kuala lipis,pahang,wikipedia,
27210,kuala lipis,pahang,wikipedia,
27300,benta,pahang,wikipedia,
27310,benta,pahang,wikipedia,
27400,dong,pahang,wikipedia,
27600,raub,pahang,wikipedia,
27610,raub,pahang,wikipedia,
27620,raub,pahang,wikipedia,
27630,raub,pahang,wikipedia,
27650,sungai koyan,pahang,wikipedia,
27660,sega,pahang,wikipedia,
27670,raub,pahang,wikipedia,
28000,temerloh,pahang,wikipedia,
28010,temerloh,pahang,wikipedia,
28020,temerloh,pahang,wikipedia,
28030,temerloh,pahang,wikipedia,
28040,temerloh,pahang,wikipedia,
28050,kuala krau,pahang,wikipedia,
28100,chenor,pahang,wikipedia,
28200,bandar bera,pahang,wikipedia,
28300,triang,pahang,wikipedia,
28310,triang,pahang,wikipedia,
28320,triang,pahang,wikipedia,
28330,triang,pahang,wikipedia,
28340,kemayan,pahang,wikipedia,
28380,kemayan,pahang,wikipedia,
28400,mentakab,pahang,wikipedia,
28500,lanchang,pahang,wikipedia,
28600,karak,pahang,wikipedia,
28610,karak,pahang,wikipedia,
28620,karak,pahang,wikipedia,
28700,bentong,pahang,wikipedia,
28730,bentong,pahang,wikipedia,
28740,bentong,pahang,wikipedia,
28750,bentong,pahang,wikipedia,
28800,lurah bilut,pahang,wikipedia,
39000,tanah rata,pahang,wikipedia,
39010,tanah rata,pahang,wikipedia,
39100,brinchang,pahang,wikipedia,
39200,ringlet,pahang,wikipedia,
49000,bukit fraser,pahang,wikipedia,
69000,genting highlands,pahang,wikipedia,
30000,ipoh,perak,wikipedia,09-02-2024
30010,ipoh,perak,wikipedia,
30020,ipoh,perak,wikipedia,
30100,ipoh,perak,wikipedia,
30200,ipoh,perak,wikipedia,
30250,ipoh,perak,wikipedia,
30300,ipoh,perak,wikipedia,
30350,ipoh,perak,wikipedia,
30450,ipoh,perak,wikipedia,
31000,batu gajah,perak,wikipedia,
31050,sungai siput,perak,wikipedia,
31100,sungai siput,perak,wikipedia,
31150,ulu kinta,perak,wikipedia,
31200,chemor,perak,wikipedia,
31250,tanjong rambutan,perak,wikipedia,
31300,kampung kepayang,perak,wikipedia,
31350,"ipoh jaya, gunung rapat",perak,wikipedia,
31400,"bercham, tasek, ampang, tambun",perak,wikipedia,
31450,"bukit kledang, menglembu",perak,wikipedia,
31500,"lahat, pengkalan pegoh",perak,wikipedia,
31550,pusing,perak,wikipedia,
31560,pusing,perak,wikipedia,
31600,gopeng,perak,wikipedia,
31610,gopeng,perak,wikipedia,
31650,ipoh,perak,wikipedia,
31700,malim nawar,perak,wikipedia,
31750,tronoh,perak,wikipedia,
31800,tanjong tualang,perak,wikipedia,
31850,jeram,perak,wikipedia,
31900,kampar,perak,wikipedia,
31910,kampar,perak,wikipedia,
31920,mambang di awan,perak,wikipedia,
31950,mambang di awan,perak,wikipedia,
32000,sitiawan,perak,wikipedia,
32040,seri manjong,perak,wikipedia,
32100,lumut,perak,wikipedia,
32200,lumut,perak,wikipedia,
32300,pangkor,perak,wikipedia,
32400,ayer tawar,perak,wikipedia,
32500,changkat keruing,perak,wikipedia,
32600,bota,perak,wikipedia,
32610,seri iskandar,perak,wikipedia,
32700,bruas,perak,wikipedia,
32800,parit,perak,wikipedia,
32900,lambor kanan,perak,wikipedia,
33000,kuala kangsar,perak,wikipedia,
33010,kuala kangsar,perak,wikipedia,
33020,kuala kangsar,perak,wikipedia,
33030,kuala kangsar,perak,wikipedia,
33040,kuala kangsar,perak,wikipedia,
33100,pengkalan hulu,perak,wikipedia,
33200,intan,perak,wikipedia,
33300,gerik,perak,wikipedia,
33310,gerik,perak,wikipedia,
33320,gerik,perak,wikipedia,
33400,lenggong,perak,wikipedia,
33410,lenggong,perak,wikipedia,
33420,lenggong,perak,wikipedia,
33500,sauk,perak,wikipedia,
33600,enggor,perak,wikipedia,
33700,padang rengas,perak,wikipedia,
33800,manong,perak,wikipedia,
34000,taiping,perak,wikipedia,
34010,taiping,perak,wikipedia,
34020,taiping,perak,wikipedia,
34030,taiping,perak,wikipedia,
34100,selama,perak,wikipedia,
34120,selama,perak,wikipedia,
34130,selama,perak,wikipedia,
34140,rantau panjang,perak,wikipedia,
34200,parit buntar,perak,wikipedia,
34250,tanjong piandang,perak,wikipedia,
34300,bagan serai,perak,wikipedia,
34310,bagan serai,perak,wikipedia,
34350,kuala kurau,perak,wikipedia,
34400,simpang ampat semanggol,perak,wikipedia,
34500,batu kurau,perak,wikipedia,
34510,batu kurau,perak,wikipedia,
34520,batu kurau,perak,wikipedia,
34600,kamunting,perak,wikipedia,
34650,kuala sepetang,perak,wikipedia,
34700,simpang,perak,wikipedia,
34750,matang,perak,wikipedia,
34800,trong,perak,wikipedia,
34850,changkat jering,perak,wikipedia,
34900,pantai remis,perak,wikipedia,
35000,tapah,perak,wikipedia,
35300,chenderiang,perak,wikipedia,
35350,temoh,perak,wikipedia,
35400,tapah road,perak,wikipedia,
35500,bidor,perak,wikipedia,
35600,sungkai,perak,wikipedia,
35700,trolak,perak,wikipedia,
35800,slim river,perak,wikipedia,
35820,slim river,perak,wikipedia,
35900,tanjong malim,perak,wikipedia,
35910,tanjong malim,perak,wikipedia,
35950,behrang stesen,perak,wikipedia,
36000,teluk intan,perak,wikipedia,
36010,teluk intan,perak,wikipedia,
36020,teluk intan,perak,wikipedia,
36030,teluk intan,perak,wikipedia,
36100,bagan datoh,perak,wikipedia,
36110,teluk intan,perak,wikipedia,
36200,selekoh,perak,wikipedia,
36300,sungai sumun,perak,wikipedia,
36400,hutan melintang,perak,wikipedia,
36500,ulu bernam,perak,wikipedia,
36600,chenderong balai,perak,wikipedia,
36700,langkap,perak,wikipedia,
36750,chikus,perak,wikipedia,
36800,kampung gajah,perak,wikipedia,
36810,kampung gajah,perak,wikipedia,
40000,shah alam,selangor,wikipedia,
40100,shah alam,selangor,wikipedia,
40150,shah alam,selangor,wikipedia,
40160,shah alam,selangor,wikipedia,
40170,shah alam,selangor,wikipedia,
40200,shah alam,selangor,wikipedia,
40300,shah alam,selangor,wikipedia,
40400,shah alam,selangor,wikipedia,
40450,shah alam,selangor,wikipedia,
40460,shah alam,selangor,wikipedia,
40470,shah alam,selangor,wikipedia,
41000,klang,selangor,wikipedia,
41050,klang,selangor,wikipedia,
41100,klang,selangor,wikipedia,
41150,klang,selangor,wikipedia,
41200,klang,selangor,wikipedia,
41250,klang,selangor,wikipedia,
41300,klang,selangor,wikipedia,
41400,klang,selangor,wikipedia,
42000,pelabuhan klang,selangor,wikipedia,
42100,klang,selangor,wikipedia,
42200,kapar,selangor,wikipedia,
42300,bandar puncak alam,selangor,wikipedia,
42500,telok panglima garang,selangor,wikipedia,
42600,jenjarom,selangor,wikipedia,
42610,jenjarom,selangor,wikipedia,
42700,banting,selangor,wikipedia,
42800,tanjong sepat,selangor,wikipedia,
42920,pulau indah,selangor,wikipedia,
42940,pulau ketam,selangor,wikipedia,
42960,pulau carey,selangor,wikipedia,
43000,kajang,selangor,wikipedia,
43100,hulu langat,selangor,wikipedia,
43200,cheras,selangor,wikipedia,
43300,seri kembangan,selangor,wikipedia,
43400,serdang,selangor,wikipedia,
43500,semenyih,selangor,wikipedia,
43600,bangi,selangor,wikipedia,
43650,bandar baru bangi,selangor,wikipedia,
43700,beranang,selangor,wikipedia,
43800,dengkil,selangor,wikipedia,
43900,sepang,selangor,wikipedia,
43950,sungai pelek,selangor,wikipedia,
44000,kuala kubu baru,selangor,wikipedia,
44010,kuala kubu baru,selangor,wikipedia,
44020,kuala kubu baru,selangor,wikipedia,
44100,kerling,selangor,wikipedia,
44110,kuala kubu baru,selangor,wikipedia,
44200,rasa,selangor,wikipedia,
44300,batang kali,selangor,wikipedia,
45000,kuala selangor,selangor,wikipedia,
45100,sungai ayer tawar,selangor,wikipedia,
45200,sabak bernam,selangor,wikipedia,
45300,sungai besar,selangor,wikipedia,
45400,sekinchan,selangor,wikipedia,
45500,tanjong karang,selangor,wikipedia,
45600,bestari jaya,selangor,wikipedia,
45609,bestari jaya,selangor,wikipedia,
45620,bestari jaya,selangor,wikipedia,
45700,bukit rotan,selangor,wikipedia,
45800,jeram,selangor,wikipedia,
46000,petaling jaya,selangor,wikipedia,
46050,petaling jaya,selangor,wikipedia,
46100,petaling jaya,selangor,wikipedia,
46150,petaling jaya,selangor,wikipedia,
46200,petaling jaya,selangor,wikipedia,
46300,petaling jaya,selangor,wikipedia,
46350,petaling jaya,selangor,wikipedia,
46400,petaling jaya,selangor,wikipedia,
47000,sungai buloh,selangor,wikipedia,
47100,puchong,selangor,wikipedia,
47110,puchong,selangor,wikipedia,
47120,puchong,selangor,wikipedia,
47130,puchong,selangor,wikipedia,
47140,puchong,selangor,wikipedia,
47150,puchong,selangor,wikipedia,
47160,puchong,selangor,wikipedia,
47170,puchong,selangor,wikipedia,
47180,puchong,selangor,wikipedia,
47190,puchong,selangor,wikipedia,
47200,subang airport,selangor,wikipedia,
47300,petaling jaya,selangor,wikipedia,
47301,petaling jaya,selangor,wikipedia,
47308,petaling jaya,selangor,wikipedia,
47400,petaling jaya,selangor,wikipedia,
47410,petaling jaya,selangor,wikipedia,
47500,subang jaya,selangor,wikipedia,
47600,subang jaya,selangor,wikipedia,
47610,subang jaya,selangor,wikipedia,
47620,subang jaya,selangor,wikipedia,
47630,subang jaya,selangor,wikipedia,
47640,subang jaya,selangor,wikipedia,
47800,petaling jaya,selangor,wikipedia,
47810,petaling jaya,selangor,wikipedia,
47820,petaling jaya,selangor,wikipedia,
47830,petaling jaya,selangor,wikipedia,
48000,rawang,selangor,wikipedia,
48010,rawang,selangor,wikipedia,
48020,rawang,selangor,wikipedia,
48050,rawang,selangor,wikipedia,
48100,batu arang,selangor,wikipedia,
48200,serendah,selangor,wikipedia,
48300,rawang,selangor,wikipedia,
63000,cyberjaya,selangor,wikipedia,
63100,cyberjaya,selangor,wikipedia,
63200,cyberjaya,selangor,wikipedia,
63300,cyberjaya,selangor,wikipedia,
64000,klia,selangor,wikipedia,
68000,ampang,selangor,wikipedia,
68100,batu caves,selangor,wikipedia,
50000,bukit bintang,kualalumpur,wikipedia,
50050,bukit bintang,kualalumpur,wikipedia,
50088,bukit bintang,kualalumpur,wikipedia,
50100,bukit bintang,kualalumpur,wikipedia,
50150,bukit bintang,kualalumpur,wikipedia,
50200,bukit bintang,kualalumpur,wikipedia,
50250,bukit bintang,kualalumpur,wikipedia,
50300,titiwangsa,kualalumpur,wikipedia,
50350,bukit bintang,kualalumpur,wikipedia,
50400,batu,kualalumpur,wikipedia,
50450,bukit bintang,kualalumpur,wikipedia,
50460,bukit bintang,kualalumpur,wikipedia,
50470,bukit bintang,kualalumpur,wikipedia,
50480,segambut,kualalumpur,wikipedia,
50490,segambut,kualalumpur,wikipedia,
51000,batu,kualalumpur,wikipedia,
52000,kepong,kualalumpur,wikipedia,
52100,kepong,kualalumpur,wikipedia,
52200,segambut,kualalumpur,wikipedia,
53000,wangsa maju,kualalumpur,wikipedia,
53100,wangsa maju,kualalumpur,wikipedia,
53200,titiwangsa,kualalumpur,wikipedia,
53300,wangsa maju,kualalumpur,wikipedia,
54000,titiwangsa,kualalumpur,wikipedia,
54100,setiawangsa,kualalumpur,wikipedia,
54200,setiawangsa,kualalumpur,wikipedia,
55000,titiwangsa,kualalumpur,wikipedia,
55100,titiwangsa,kualalumpur,wikipedia,
55200,cheras,kualalumpur,wikipedia,
55300,cheras,kualalumpur,wikipedia,
56000,bandar tun razak,kualalumpur,wikipedia,
56100,cheras,kualalumpur,wikipedia,
57000,seputeh,kualalumpur,wikipedia,
57100,bandar tun razak,kualalumpur,wikipedia,
58000,seputeh,kualalumpur,wikipedia,
58100,lembah pantai,kualalumpur,wikipedia,
58200,seputeh,kualalumpur,wikipedia,
59000,lembah pantai,kualalumpur,wikipedia,
59100,lembah pantai,kualalumpur,wikipedia,
59200,lembah pantai,kualalumpur,wikipedia,
60000,segambut,kualalumpur,wikipedia,
62000,presint 1 & 12,putrajaya,wikipedia,
62050,presint 14 & 15,putrajaya,wikipedia,
62100,presint 2-4 & 16-18,putrajaya,wikipedia,
62150,presint 5-6 & 19-20,putrajaya,wikipedia,
62250,presint 7-10,putrajaya,wikipedia,
62300,presint 11 & 13,putrajaya,wikipedia,
70000,seremban,negerisembilan,wikipedia,
70100,seremban,negerisembilan,wikipedia,
70200,seremban,negerisembilan,wikipedia,
70300,seremban,negerisembilan,wikipedia,
70400,seremban,negerisembilan,wikipedia,
70450,seremban,negerisembilan,wikipedia,
71000,port dickson,negerisembilan,wikipedia,
71010,port dickson,negerisembilan,wikipedia,
71050,si rusa,negerisembilan,wikipedia,
71100,rantau,negerisembilan,wikipedia,
71150,linggi,negerisembilan,wikipedia,
71200,rantau,negerisembilan,wikipedia,
71250,si rusa,negerisembilan,wikipedia,
71300,rembau,negerisembilan,wikipedia,
71350,kota,negerisembilan,wikipedia,
71400,rembau,negerisembilan,wikipedia,
71450,seremban,negerisembilan,wikipedia,
71500,tanjong ipoh,negerisembilan,wikipedia,
71550,tanjong ipoh,negerisembilan,wikipedia,
71600,kuala klawang,negerisembilan,wikipedia,
71650,kuala klawang,negerisembilan,wikipedia,
71700,mantin,negerisembilan,wikipedia,
71750,mantin,negerisembilan,wikipedia,
71760,bandar baru enstek,negerisembilan,wikipedia,
71770,seremban,negerisembilan,wikipedia,
71800,nilai,negerisembilan,wikipedia,
71900,labu,negerisembilan,wikipedia,
71950,bandar sri sendayan,negerisembilan,wikipedia,
71960,port dickson,negerisembilan,wikipedia,
72000,kuala pilah,negerisembilan,wikipedia,
72100,bahau,negerisembilan,wikipedia,
72120,bandar seri jempol,negerisembilan,wikipedia,
72200,batu kikir,negerisembilan,wikipedia,
72300,simpang pertang,negerisembilan,wikipedia,
72400,simpang durian,negerisembilan,wikipedia,
72500,kuala pilah,negerisembilan,wikipedia,
73000,tampin,negerisembilan,wikipedia,
73100,johol,negerisembilan,wikipedia,
73200,gemencheh,negerisembilan,wikipedia,
73300,gemencheh,negerisembilan,wikipedia,
73400,gemas,negerisembilan,wikipedia,
73420,gemas,negerisembilan,wikipedia,
73430,pusat bandar palong,negerisembilan,wikipedia,
73440,pusat bandar palong,negerisembilan,wikipedia,
73450,pusat bandar palong,negerisembilan,wikipedia,
73460,pusat bandar palong,negerisembilan,wikipedia,
73470,pusat bandar palong,negerisembilan,wikipedia,
73480,gemas,negerisembilan,wikipedia,
73500,rompin,negerisembilan,wikipedia,
75000,"banda hilir, melaka raya",melaka,wikipedia,
75050,"semabok, ujong pasir",melaka,wikipedia,
75100,kampung jawa,melaka,wikipedia,
75150,"bukit baru, bukit piatu",melaka,wikipedia,
75200,"klebang, tengkera, limbongan",melaka,wikipedia,
75250,"bachang, malim",melaka,wikipedia,
75260,"cheng, bukit rambai, tanjong minyak, krubong",melaka,wikipedia,
75300,pusat bandaraya,melaka,wikipedia,
75350,batu berendam,melaka,wikipedia,
75400,"peringgit, bukit palah",melaka,wikipedia,
75450,"ayer keroh, bukit beruang, bukit katil",melaka,wikipedia,
75460,"ayer molek, duyong, telok mas",melaka,wikipedia,
76100,durian tunggal,melaka,wikipedia,
76200,kem trendak,melaka,wikipedia,
76300,sungai udang,melaka,wikipedia,
76400,tanjong kling,melaka,wikipedia,
76450,"paya rumput, bertam",melaka,wikipedia,
77000,jasin,melaka,wikipedia,
77100,asahan,melaka,wikipedia,
77200,bemban,melaka,wikipedia,
77300,merlimau,melaka,wikipedia,
77400,sungai rambai,melaka,wikipedia,
77500,selandar,melaka,wikipedia,
78000,alor gajah,melaka,wikipedia,
78100,lubok china,melaka,wikipedia,
78200,kuala sungai baru,melaka,wikipedia,
78300,masjid tanah,melaka,wikipedia,
79000,iskandar puteri,johor,wikipedia,
79100,iskandar puteri,johor,wikipedia,
79150,iskandar puteri,johor,wikipedia,
79200,iskandar puteri,johor,wikipedia,
79250,iskandar puteri,johor,wikipedia,
79503,iskandar puteri,johor,wikipedia,
80000,johor bahru,johor,wikipedia,
80050,johor bahru,johor,wikipedia,
80100,johor bahru,johor,wikipedia,
80150,johor bahru,johor,wikipedia,
80200,johor bahru,johor,wikipedia,
80250,johor bahru,johor,wikipedia,
80300,johor bahru,johor,wikipedia,
80350,johor bahru,johor,wikipedia,
80400,johor bahru,johor,wikipedia,
81000,kulai,johor,wikipedia,
81100,johor bahru,johor,wikipedia,
81200,johor bahru,johor,wikipedia,
81300,johor bahru,johor,wikipedia,
81400,senai,johor,wikipedia,
81440,bandar tenggara,johor,wikipedia,
81450,gugusan taib andak,johor,wikipedia,
81500,pekan nenas,johor,wikipedia,
81550,gelang patah,johor,wikipedia,
81600,pengerang,johor,wikipedia,
81700,pasir gudang,johor,wikipedia,
81750,masai,johor,wikipedia,
81800,ulu tiram,johor,wikipedia,
81850,layang-layang,johor,wikipedia,
81900,kota tinggi,johor,wikipedia,
81920,ayer tawar 2,johor,wikipedia,
81930,bandar penawar,johor,wikipedia,
82000,pontian,johor,wikipedia,
82100,ayer baloi,johor,wikipedia,
82200,benut,johor,wikipedia,
82300,kukup,johor,wikipedia,
83000,batu pahat,johor,wikipedia,
83100,rengit,johor,wikipedia,
83200,senggarang,johor,wikipedia,
83300,seri gading,johor,wikipedia,
83400,seri medan,johor,wikipedia,
83500,parit sulong,johor,wikipedia,
83600,semerah,johor,wikipedia,
83700,yong peng,johor,wikipedia,
84000,muar,johor,wikipedia,
84150,parit jawa,johor,wikipedia,
84200,muar,johor,wikipedia,
84300,bukit pasir,johor,wikipedia,
84400,sungai mati,johor,wikipedia,
84500,panchor,johor,wikipedia,
84600,pagoh,johor,wikipedia,
84700,gerisek,johor,wikipedia,
84800,bukit gambir,johor,wikipedia,
84900,tangkak,johor,wikipedia,
85000,segamat,johor,wikipedia,
85100,batu anam,johor,wikipedia,
85200,jementah,johor,wikipedia,
85300,labis,johor,wikipedia,
85400,chaah,johor,wikipedia,
86000,kluang,johor,wikipedia,
86100,ayer hitam,johor,wikipedia,
86200,simpang renggam,johor,wikipedia,
86300,renggam,johor,wikipedia,
86400,parit raja,johor,wikipedia,
86500,bekok,johor,wikipedia,
86600,paloh,johor,wikipedia,
86700,kahang,johor,wikipedia,
86800,mersing,johor,wikipedia,
86810,mersing,johor,wikipedia,
86900,endau,johor,wikipedia,
87000,labuan,labuan,wikipedia,
88000,kota kinabalu,sabah,wikipedia,
88100,kota kinabalu,sabah,wikipedia,
88200,kota kinabalu,sabah,wikipedia,
88300,kota kinabalu,sabah,wikipedia,
88400,kota kinabalu,sabah,wikipedia,
88450,kota kinabalu,sabah,wikipedia,
88460,kota kinabalu,sabah,wikipedia,
89000,keningau,sabah,wikipedia,
89050,kudat,sabah,wikipedia,
89100,kota marudu,sabah,wikipedia,
89150,kota belud,sabah,wikipedia,
89200,tuaran,sabah,wikipedia,
89250,tamparuli,sabah,wikipedia,
89260,tenghilan,sabah,wikipedia,
89300,ranau,sabah,wikipedia,
89500,penampang,sabah,wikipedia,
89600,papar,sabah,wikipedia,
89650,tambunan,sabah,wikipedia,
89700,bongawan,sabah,wikipedia,
89720,membakut,sabah,wikipedia,
89740,kuala penyu,sabah,wikipedia,
89760,menumbok,sabah,wikipedia,
89800,beaufort,sabah,wikipedia,
89850,sipitang,sabah,wikipedia,
89900,tenom,sabah,wikipedia,
89950,nabawan,sabah,wikipedia,
90000,sandakan,sabah,wikipedia,
90100,beluran,sabah,wikipedia,
90200,kota kinabatangan,sabah,wikipedia,
90300,sandakan,sabah,wikipedia,
90400,pamol,sabah,wikipedia,
91000,tawau,sabah,wikipedia,
91039,tawau,sabah,wikipedia,
91100,lahad datu,sabah,wikipedia,
91150,lahad datu,sabah,wikipedia,
91200,kunak,sabah,wikipedia,
91300,semporna,sabah,wikipedia,
93000,kuching,sarawak,wikipedia,
93010,kuching,sarawak,wikipedia,
93050,kuching,sarawak,wikipedia,
93100,kuching,sarawak,wikipedia,
93150,kuching,sarawak,wikipedia,
93200,kuching,sarawak,wikipedia,
93250,kuching,sarawak,wikipedia,
93300,kuching,sarawak,wikipedia,
93350,kuching,sarawak,wikipedia,
93400,kuching,sarawak,wikipedia,
93450,kuching,sarawak,wikipedia,
94000,bau,sarawak,wikipedia,
94200,siburan,sarawak,wikipedia,
94300,kota samarahan,sarawak,wikipedia,
94500,lundu,sarawak,wikipedia,
94600,asajaya,sarawak,wikipedia,
94650,kabong,sarawak,wikipedia,
94700,serian,sarawak,wikipedia,
94750,serian,sarawak,wikipedia,
94760,serian,sarawak,wikipedia,
94800,simunjan,sarawak,wikipedia,
94850,sebuyau,sarawak,wikipedia,
94900,lingga,sarawak,wikipedia,
94950,pusa,sarawak,wikipedia,
95000,sri aman,sarawak,wikipedia,
95300,roban,sarawak,wikipedia,
95400,saratok,sarawak,wikipedia,
95500,debak,sarawak,wikipedia,
95600,spaoh,sarawak,wikipedia,
95700,betong,sarawak,wikipedia,
95800,engkilili,sarawak,wikipedia,
95900,lubok antu,sarawak,wikipedia,
96000,sibu,sarawak,wikipedia,
96100,sarikei,sarawak,wikipedia,
96150,belawai,sarawak,wikipedia,
96200,daro,sarawak,wikipedia,
96250,matu,sarawak,wikipedia,
96300,dalat,sarawak,wikipedia,
96350,balingian,sarawak,wikipedia,
96400,mukah,sarawak,wikipedia,
96410,mukah,sarawak,wikipedia,
96500,bintangor,sarawak,wikipedia,
96600,julau,sarawak,wikipedia,
96700,kanowit,sarawak,wikipedia,
96800,kapit,sarawak,wikipedia,
96850,song,sarawak,wikipedia,
96900,belaga,sarawak,wikipedia,
97000,bintulu,sarawak,wikipedia,
97100,sebauh,sarawak,wikipedia,
97200,tatau,sarawak,wikipedia,
97300,bintulu,sarawak,wikipedia,
98000,miri,sarawak,wikipedia,
98050,baram,sarawak,wikipedia,
98100,lutong,sarawak,wikipedia,
98150,bekenu,sarawak,wikipedia,
98200,niah,sarawak,wikipedia,
98300,long lama,sarawak,wikipedia,
98700,limbang,sarawak,wikipedia,
98750,nanga medamit,sarawak,wikipedia,
98800,sundar,sarawak,wikipedia,
98850,lawas,sarawak,wikipedia,
91308,semporna,sabah,google map,
89308,kundasang,sabah,google map,
89307,ranau,sabah,google map,
89257,tamparuli,sabah,google map,
89058,kudat,sabah,google map,
88843,kota kinabalu,sabah,google map,
91307,semporna,sabah,google map,
88800,kota kinabalu,sabah,google map,
88858,kota kinabalu,sabah,google map,
89157,kota belud,sabah,google search,
89057,kudat,sabah,google search,
89570,kudat,sabah,ota address,
89747,kuala penyu,sabah,google search,
88855,kota kinabalu,sabah,google search,
91309,semporna,sabah,google map,
90702,sandakan,sabah,google search,
88993,kota kinabalu,sabah,google map,
88813,kota kinabalu,sabah,google map,
88991,kota kinabalu,sabah,google search,
88814,kota kinabalu,sabah,google search,
88999,kota kinabalu,sabah,google map,
89158,kota belud,sabah,google map,
50230,kuala lumpur,kualalumpur,ota address,
53250,kuala lumpur,kualalumpur,ota address,
50330,chow kit,kualalumpur,ota address,
50790,segambut,kualalumpur,ota address,
77220,bemban,melaka,google search,
75620,"cheng, bukit rambai, tanjong minyak, krubong",melaka,ota address,
75500,"bandar hilir, melaka raya",melaka,google map,
81110,skudai,johor,google map,
79259,iskandar puteri,johor,google map,
81250,senai,johor,google map,
89130,bandar penawar,johor,ota address,
83010,batu pahat,johor,ota address,
91930,bandar penawar,johor,ota address,
81760,pasir gudang,johor,google map,
7100,langkawi,kedah,ota address,
5440,alor setar,kedah,ota address,
98008,miri,sarawak,google search,
98070,mulu,sarawak,ota address,
93756,kuching,sarawak,google search,
95007,sri aman,sarawak,google search,
93860,kuching,sarawak,ota address,
97012,bintulu,sarawak,ota address,
94100,pelaman siru,sarawak,ota address,
40250,shah alam,selangor,google search,
48720,petaling jaya,selangor,google search,
47650,subang jaya,selangor,google map,
62502,"putrajaya, serdang",putrajaya,google search,
62505,"putrajaya, serdang",putrajaya,google search,
62200,presint 5-6 & 19-20,putrajaya,google search,
10030,georgetown,penang,google search,
10440,georgetown,penang,ota address,
10500,georgetown,penang,ota address,
11150,batu feringghi,penang,ota address,
69100,genting highlands,pahang,ota address,
20040,cukai,terengganu,ota address,
16160,kota bharu,kelantan,ota address,
87007,labuan,labuan,ota address,
87014,labuan,labuan,ota address,
71560,port dickson,negerisembilan,google map,
89208,kota kinabalu,sabah,ota address,09-02-2024
90709,sandakan,sabah,ota address,09-02-2024
88330,kota kinabalu,sabah,ota address,09-02-2024
91038,semporna,sabah,ota address,09-02-2024
90717,sandakan,sabah,ota address,09-02-2024
88600,kota kinabalu,sabah,ota address,09-02-2024
90705,sandakan,sabah,ota address,09-02-2024
88846,kota kinabalu,sabah,ota address,09-02-2024
91350,semporna,sabah,ota address,09-02-2024
91010,tawau,sabah,ota address,09-02-2024
88801,kota kinabalu,sabah,ota address,09-02-2024
88830,kota kinabalu,sabah,ota address,09-02-2024
91037,semporna,sabah,ota address,09-02-2024
88839,kota kinabalu,sabah,ota address,09-02-2024
90707,sandakan,sabah,ota address,09-02-2024
88916,kota kinabalu,sabah,ota address,09-02-2024
90009,sandakan,sabah,ota address,09-02-2024
89709,kuala penyu,sabah,ota address,09-02-2024
89159,kota kinabalu,sabah,ota address,09-02-2024
91113,sandakan,sabah,ota address,09-02-2024
89209,tuaran,sabah,ota address,09-02-2024
89008,keningau,sabah,ota address,09-02-2024
88778,kota kinabalu,sabah,ota address,09-02-2024
91110,lahad datu,sabah,ota address,09-02-2024
88771,inanam,sabah,ota address,09-02-2024
89808,beaufort,sabah,ota address,09-02-2024
89657,tambun,sabah,ota address,09-02-2024
40675,shah alam,selangor,ota address,09-02-2024
40420,shah alam,selangor,ota address,09-02-2024
40718,shah alam,selangor,ota address,09-02-2024
40310,shah alam,selangor,ota address,09-02-2024
40350,shah alam,selangor,ota address,09-02-2024
81050,johor bahru,johor,ota address,09-02-2024
81910,kota tinggi,johor,ota address,09-02-2024
81620,pengerang,johor,ota address,09-02-2024
83020,batu pahat,johor,ota address,09-02-2024
83050,batu pahat,johor,ota address,09-02-2024
22220,jerteh,terengganu,ota address,09-02-2024
39011,cameron highlands,pahang,ota address,09-02-2024
86807,mersing,pahang,ota address,09-02-2024
26101,balok,pahang,ota address,09-02-2024
10040,george town,penang,ota address,09-02-2024
98857,lawas,sarawak,ota address,09-02-2024
98107,lutong,sarawak,ota address,09-02-2024
98059,bario,sarawak,ota address,09-02-2024
93732,kuching,sarawak,ota address,09-02-2024
98060,bario,sarawak,ota address,09-02-2024
98007,miri,sarawak,ota address,09-02-2024
87029,labuan,labuan,ota address,09-02-2024
87010,labuan,labuan,ota address,09-02-2024
87008,labuan,labuan,ota address,09-02-2024
87015,labuan,labuan,ota address,09-02-2024
87030,labuan,labuan,ota address,09-02-2024
31020,ipoh,perak,ota address,09-02-2024
36210,seri iskandar,perak,ota address,09-02-2024
31999,sitiawan,perak,ota address,09-02-2024
73838,langkawi,kedah,ota address,09-02-2024
5450,alor setar,kedah,ota address,09-02-2024
15990,kota bharu,kelantan,ota address,09-02-2024
17100,pasir mas,kelantan,ota address,09-02-2024
15151,kota bharu,kelantan,ota address,09-02-2024
50240,bukit bintang,kualalumpur,ota address,09-02-2024
50259,bukit bintang,kualalumpur,ota address,09-02-2024
51050,bukit bintang,kualalumpur,ota address,09-02-2024
65205,putrajaya,putrajaya,ota address,09-02-2024
10570,tanjong tokong,penang,ota address,09-02-2024
89807,beaufort,sabah,ota address,09-02-2024